LEMUR-2-LEIA-PHILIP     
1 63246U 25052AN  26191.52575551  .00001175  00000+0  10603-3 0  9995
2 63246  97.6815  83.0813 0005042 130.3106 229.8557 14.97385737 72165
LEMUR-2-LIA-MARTIN      
1 63248U 25052AQ  26191.12148622  .00003770  00000+0  32410-3 0  9991
2 63248  97.6875  83.1935 0005413 102.3403 257.8426 14.98002545 72115
LEMUR-2-DELOITTE-1      
1 63259U 25052BB  26189.69813140  .00002354  00000+0  20556-3 0  9991
2 63259  97.6884  82.1233 0002308  66.8273 293.3192 14.97751965 71914
LEMUR-2-EMERSONROSE     
1 63261U 25052BD  26192.18825411  .00003137  00000+0  26193-3 0  9999
2 63261  97.6884  85.1791 0002799  66.9250 293.2268 14.99267533 72334
LEMUR-2-MARACHE-FRAN    
1 63262U 25052BE  26192.14701198  .00002095  00000+0  17190-3 0  9990
2 63262  97.6854  85.5010 0004773 270.6525  89.4152 15.00300181 72352
LEMUR-2-THEFALCONER     
1 63264U 25052BG  26192.13309391  .00001609  00000+0  14280-3 0  9997
2 63264  97.6851  84.1157 0000537  13.5490 346.5747 14.97553031 72274
LEMUR-2-UNTITLED-SC     
1 63351U 25061A   26191.36003445  .00002328  00000+0  13282-3 0  9999
2 63351  97.5647 166.5561 0018692 179.4862 180.6392 15.13626636 71096
LEMUR-2-ESPERANZA       
1 63352U 25061B   26191.79843683  .00002129  00000+0  12142-3 0  9996
2 63352  97.5654 167.0906 0018349 177.2231 182.9105 15.13735969 71164
LEMUR-2-KREMPEL-BRO2    
1 63353U 25061C   26191.35604734  .00002542  00000+0  14248-3 0  9999
2 63353  97.5701 167.2141 0019484 171.4566 188.7001 15.14158603 71118
LEMUR-2-THERMORAPTOR    
1 63354U 25061D   26191.60119683  .00002413  00000+0  13515-3 0  9995
2 63354  97.5705 167.5381 0019290 169.5482 190.6154 15.14243165 71155
LEMUR-2-NEUROSPICY      
1 63355U 25061E   26192.16575595  .00002183  00000+0  12232-3 0  9995
2 63355  97.5634 167.7074 0017063 170.3535 189.8028 15.14363313 71241
LEMUR-2-TILLINFINITY    
1 63356U 25061F   26191.92757639  .00002109  00000+0  11629-3 0  9997
2 63356  97.5619 167.7778 0018631 160.0499 200.1466 15.14946384 71230
LEMUR-2-KREMPEL-BRO1    
1 63357U 25061G   26192.16831983  .00002135  00000+0  11831-3 0  9994
2 63357  97.5620 167.9265 0019240 160.5159 199.6813 15.14754543 71266
LEMUR-2-LANGER2SPACE    
1 63358U 25061H   26191.47283575  .00002547  00000+0  14175-3 0  9997
2 63358  97.5624 167.0395 0016942 171.1205 189.0330 15.14445813 71143
LEMUR-2-KRISH           
1 64561U 25135AK  26191.27911249  .00003597  00000+0  32233-3 0  9991
2 64561  97.7764 306.0004 0001701  98.2728 261.8686 14.96425392 57376
